ONEWEB-0580             
1 54648U 22166G   26168.77042206  .00000075  00000+0  15083-3 0  9996
2 54648  87.9253 243.8655 0002251  88.7353 271.4039 13.21827539171624
ONEWEB-0582             
1 54649U 22166H   26169.19097382  .00000018  00000+0  11577-4 0  9991
2 54649  87.9253 243.7743 0002123  86.5235 273.6142 13.21826613171659
ONEWEB-0583             
1 54650U 22166J   26169.20273723 -.00000033  00000+0 -11216-3 0  9998
2 54650  87.9253 243.7954 0002055  95.0984 265.0384 13.21827342171669
ONEWEB-0584             
1 54651U 22166K   26168.76875049  .00000061  00000+0  11649-3 0  9997
2 54651  87.9250 243.8671 0002114  95.7826 264.3549 13.21825518171592
ONEWEB-0585             
1 54652U 22166L   26168.71661230 -.00000035  00000+0 -11552-3 0  9994
2 54652  87.9256 243.8648 0001991 103.3003 256.8353 13.21826824171598
ONEWEB-0586             
1 54653U 22166M   26169.18423584 -.00000001  00000+0 -33244-4 0  9991
2 54653  87.9255 243.7971 0001964  93.4532 266.6826 13.21824172171657
ONEWEB-0587             
1 54654U 22166N   26169.19432796  .00000025  00000+0  28287-4 0  9993
2 54654  87.9265 243.7686 0002054 108.7446 251.3911 13.21824411171817
ONEWEB-0589             
1 54655U 22166P   26168.72669356  .00000027  00000+0  34554-4 0  9992
2 54655  87.9251 243.8739 0002372  77.8314 282.3085 13.21824482171618
ONEWEB-0590             
1 54656U 22166Q   26169.20597132  .00000053  00000+0  97328-4 0  9996
2 54656  87.9262 243.7687 0002506  99.2893 260.8524 13.21827185171668
ONEWEB-0591             
1 54657U 22166R   26169.14219696  .00000106  00000+0  22525-3 0  9991
2 54657  87.9251 243.7962 0002131  98.2544 261.8832 13.21826751171682
ONEWEB-0592             
1 54658U 22166S   26168.76706243 -.00002359  00000+0 -57426-2 0  9999
2 54658  87.9261 243.8490 0002144 100.9289 259.2086 13.21839470171518
ONEWEB-0593             
1 54659U 22166T   26168.71323121  .00000044  00000+0  74583-4 0  9997
2 54659  87.9256 243.8713 0001922  95.0391 265.0962 13.21824657171612
ONEWEB-0594             
1 54660U 22166U   26168.73343063 -.00000027  00000+0 -95824-4 0  9992
2 54660  87.9252 243.8836 0001924 102.9221 257.2128 13.21827742171635
ONEWEB-0595             
1 54661U 22166V   26168.63417271  .00000020  00000+0  17103-4 0  9990
2 54661  87.9261 243.8839 0002136 105.4608 254.6762 13.21827524171590
ONEWEB-0596             
1 54662U 22166W   26169.21452302  .00000094  00000+0  19710-3 0  9996
2 54662  87.9254 243.7798 0002087 101.3901 258.7468 13.21826930171679
ONEWEB-0597             
1 54663U 22166X   26169.19601907  .00000007  00000+0 -14697-4 0  9996
2 54663  87.9253 243.7867 0001993  94.9553 265.1808 13.21826679171671
